STARLINK-31134          
1 58621U 23203D   26068.34489044  .00002548  00000+0  10214-3 0  9999
2 58621  43.0027  69.4663 0001414 264.5032  95.5658 15.27565704123507
FLOCK 4G-26             
1 62633U 25009AA  26068.80489479  .00011283  00000+0  42469-3 0  9999
2 62633  97.4054 151.3913 0001988 299.1273  60.9767 15.27281631 63733
